INTELSAT 19 (IS-19) [PM]
1 38356C 12030A   23197.48402778  .00000038  00000-0  00000-0 0  1974
2 38356   0.0013  19.9414 0002716 101.4006 152.9542  1.00271023    12
INTELSAT 20 (IS-20) [PM]
1 38740C 12043A   23193.43936343  .00000058  00000-0  00000-0 0  1934
2 38740   0.0465 205.2055 0001515 146.7622 164.7540  1.00272027    17
INTELSAT 20 (IS-20)     
1 38740C 12043A   23193.88406250  .00000066  00000-0  00000-0 0  1931
2 38740   0.0155  95.7568 0001467  99.4386 122.0590  1.00270002    14
INTELSAT 21 (IS-21) [PM]
1 38749C 12045A   23192.83559028 -.00000196  00000-0  00000-0 0  1922
2 38749   0.0117  48.4203 0002069  70.2009  53.6458  1.00273182    14
INTELSAT 21 (IS-21)     
1 38749C 12045A   23194.00000000 -.00000195  00000-0  00000-0 0  1945
2 38749   0.0155  55.9592 0002077  64.9198 111.7282  1.00273079    14
INTELSAT 23 (IS-23)     
1 38867C 12057A   23194.00000000 -.00000198  00000-0  00000-0 0  1942
2 38867   0.0453 224.7470 0000948 185.7380 187.1379  1.00271207    12
INTELSAT 23 (IS-23) [PM]
1 38867C 12057A   23198.47373843  .00000043  00000-0  00000-0 0  1987
2 38867   0.0218 159.7800 0000374  21.6376 231.1550  1.00273010    16
INTELSAT 30 (IS-30) [PM]
1 40271C 14062A   23193.67212963 -.00000062  00000-0  00000-0 0  1936
2 40271   0.0492 232.0587 0001409  84.3793 120.7517  1.00272905    16
INTELSAT 30 (IS-30)     
1 40271C 14062A   23193.88406250 -.00000061  00000-0  00000-0 0  1932
2 40271   0.0101  58.1616 0001333  23.4426  72.0926  1.00270558    11
INTELSAT 34 (IS-34)     
1 40874C 15039A   23193.88406250 -.00000191  00000-0  00000-0 0  1930
2 40874   0.0179 330.8194 0000999  23.2402 199.2082  1.00270566    19
INTELSAT 34 (IS-34) [PM]
1 40874C 15039A   23194.35637732 -.00000212  00000-0  00000-0 0  1949
2 40874   0.0492 167.6445 0000963 313.8452 242.2711  1.00273342    19
INTELSAT 31 (IS-31)     
1 41581C 16035A   23193.88406250 -.00000074  00000-0  00000-0 0  1933
2 41581   0.0344 249.7564 0001464 344.4354 279.5119  1.00270716    10
INTELSAT 31 (IS-31) [PM]
1 41581C 16035A   23195.26428241 -.00000064  00000-0  00000-0 0  1952
2 41581   0.0317 160.2638 0001385 174.1445 317.5313  1.00272381    19
INTELSAT 36 (IS-36) [PM]
1 41747C 16053A   23193.36405093  .00000067  00000-0  00000-0 0  1935
2 41747   0.0544 179.8249 0002418 308.0128   1.6923  1.00272324    18
INTELSAT 36 (IS-36)     
1 41747C 16053A   23193.88406250  .00000066  00000-0  00000-0 0  1937
2 41747   0.0121  24.1394 0002418 332.3830 320.7258  1.00270698    10
INTELSAT 33E            
1 41748C 16053B   23194.00000000  .00000139  00000-0  00000-0 0  1948
2 41748   0.0277 301.4962 0001687 168.2234 240.8769  1.00274070    13
INTELSAT 33E        [PM]
1 41748C 16053B   23197.53462963 -.00001915  00000-0  00000-0 0  1976
2 41748   0.0573 214.3243 0001569  78.6769 253.5669  1.00269900    18
INTELSAT 32E            
1 41945C 17007B   23194.00000000 -.00000179  00000-0  00000-0 0  1942
2 41945   0.0132  64.8577 0000337 255.1737 287.3893  1.00269943    16
INTELSAT 32E        [PM]
1 41945C 17007B   23194.13094907 -.00000183  00000-0  00000-0 0  1940
2 41945   0.0320 128.6039 0000715 269.0025 257.0921  1.00273769    18
INTELSAT 35E            
1 42818C 17041A   23194.00000000 -.00005019  00000-0  00000-0 0  1948
2 42818   0.0000   6.0327 0001437 103.8892 146.1864  1.00271532    11
INTELSAT 35E        [PM]
1 42818C 17041A   23197.81100694 -.00000144  00000-0  00000-0 0  1977
2 42818   0.0036  64.0639 0001338  42.6043  85.1484  1.00274381    13
INTELSAT 37E            
1 42950C 17059A   23194.00000000 -.00000050  00000-0  00000-0 0  1944
2 42950   0.0073  62.4448 0002327  60.5300 149.6145  1.00273682    18
INTELSAT 37E        [PM]
1 42950C 17059A   23198.03611111 -.00000051  00000-0  00000-0 0  1987
2 42950   0.0017  67.8627 0002385  64.3222 157.4059  1.00272773    14
AZERSPACE 2 (IS-38)     
1 43632C 18074A   23193.88406250  .00000227  00000-0  00000-0 0  1936
2 43632   0.0105  61.5731 0001204  64.3938 167.8978  1.00272320    13
HORIZONS-3E             
1 43633C 18074B   23193.88406250  .00000056  00000-0  00000-0 0  1937
2 43633   0.0419 181.2852 0000969 101.5002 134.9850  1.00269808    10
INTELSAT 39 (IS-39) [PM]
1 44476C 19049B   23193.47210648 -.00003259  00000-0  00000-0 0  1934
2 44476   0.0487 201.7908 0000889 300.9295  19.2592  1.00272682    13
INTELSAT 39 (IS-39)     
1 44476C 19049B   23193.88406250  .00000124  00000-0  00000-0 0  1932
2 44476   0.0014  28.4213 0000927 303.8537 338.4142  1.00271443    17
GALAXY 30 (G-30)        
1 46114C 20056C   23194.00000000  .00000116  00000-0  00000-0 0  1943
2 46114   0.0024   8.0038 0001731  98.9355  58.6549  1.00271303    19
GALAXY 30 (G-30)    [PM]
1 46114C 20056C   23195.38541667  .00000127  00000-0  00000-0 0  1957
2 46114   0.0014  33.0525 0001757  80.4617 192.1949  1.00271815    18
GALAXY 33 (G-33)        
1 54026C 22128A   23194.00000000  .00000145  00000-0  00000-0 0  1948
2 54026   0.0067  33.7448 0001692  75.0909  48.7834  1.00269908    19
GALAXY 33 (G-33)    [PM]
1 54026C 22128A   23197.82511574  .00000156  00000-0  00000-0 0  1979
2 54026   0.0012  23.4267 0001621  91.7653 343.2267  1.00271226    16
GALAXY 34 (G-34)        
1 54027C 22128B   23194.00000000  .00000150  00000-0  00000-0 0  1945
2 54027   0.0030  33.3095 0001340  80.9129  47.3692  1.00271162    15
GALAXY 34 (G-34)    [PM]
1 54027C 22128B   23197.52916667  .00000152  00000-0  00000-0 0  1975
2 54027   0.0107  68.8106 0001127  45.2006 241.5742  1.00269377    16
GALAXY 31 (G-31)        
1 54243C 22153A   23193.88406250  .00000059  00000-0  00000-0 0  1932
2 54243   0.0000   1.4964 0002022 262.7622 223.4939  1.00271111    14
GALAXY 31 (G-31)    [PM]
1 54243C 22153A   23196.78349537 -.00004847  00000-0  00000-0 0  1961
2 54243   0.0089 331.2353 0002115 291.6289 191.5393  1.00271750    18
GALAXY 32 (G-32)        
1 54244C 22153B   23193.88406250 -.00000084  00000-0  00000-0 0  1932
2 54244   0.0106  19.8683 0001503  29.5346 108.3469  1.00272056    16
GALAXY 32 (G-32)    [PM]
1 54244C 22153B   23198.69487269 -.00000081  00000-0  00000-0 0  1987
2 54244   0.0061  18.3254 0001334  30.0806  45.9786  1.00271148    13
GALAXY 35 (G-35)        
1 54741C 22170A   23193.88406250 -.00000070  00000-0  00000-0 0  1938
2 54741   0.0025  39.2541 0000566 174.8271 301.5749  1.00272074    14
GALAXY 35 (G-35)    [PM]
1 54741C 22170A   23197.20473380 -.00005003  00000-0  00000-0 0  1971
2 54741   0.0001  13.6809 0000792 197.4718  63.2191  1.00271839    10
GALAXY 36 (G-36)        
1 54742C 22170B   23193.88406250 -.00000093  00000-0  00000-0 0  1934
2 54742   0.0017  46.0671 0003188  57.7878  55.8962  1.00272302    11
GALAXY 36 (G-36)    [PM]
1 54742C 22170B   23197.69202546 -.00000079  00000-0  00000-0 0  1977
2 54742   0.0000  23.7375 0003099  82.3164 348.3206  1.00271457    10
INTELSAT 40E            
1 56174C 23052A   23193.88406250 -.00000083  00000-0  00000-0 0  1934
2 56174   0.0063  79.3347 0002170  61.2668  17.1472  1.00272113    16
INTELSAT 40E        [PM]
1 56174C 23052A   23196.20138889 -.00000138  00000-0  00000-0 0  1967
2 56174   0.0430 212.3000 0002229 290.7988 131.1734  1.00272202    15
